GPS BIIR-08             
1 27663U 03005A   26064.41514012  .00000009  00000+0  00000+0 0  9995
2 27663  54.9071 219.0894 0148737  52.7243 318.2187  2.00566237169230
GPS BIIR-11             
1 28190U 04009A   26064.93315625 -.00000023  00000+0  00000+0 0  9999
2 28190  54.9146 279.8578 0111025 169.1048  11.7386  2.00558087160879
GPS BIIR-13             
1 28474U 04045A   26065.10462297 -.00000095  00000+0  00000+0 0  9991
2 28474  55.1937 329.0507 0170825 312.8962  55.2493  2.00573534156365
GPS BIIR-14M            
1 28874U 05038A   26064.65960726 -.00000020  00000+0  00000+0 0  9995
2 28874  54.9620 277.3543 0128771 295.3628  71.8248  2.00572953149769
METEOSAT-9 (MSG-2)      
1 28912U 05049B   26065.06711492  .00000121  00000+0  00000+0 0  9991
2 28912   9.1287  55.1656 0001636 223.7323 314.8216  1.00278249  5965
GPS BIIR-16M            
1 29601U 06052A   26064.70961842  .00000013  00000+0  00000+0 0  9998
2 29601  54.9567 218.1055 0087848  89.3817 271.5768  2.00551752141334
GPS BIIR-17M            
1 32260U 07047A   26065.01635843 -.00000015  00000+0  00000+0 0  9995
2 32260  54.0170  84.3168 0163613  85.9747 275.9459  2.00560687134746
GPS BIIR-18M            
1 32384U 07062A   26065.07949970 -.00000020  00000+0  00000+0 0  9990
2 32384  55.1135 278.2961 0032970 160.6738  12.9295  2.00553677133447
GOES 14                 
1 35491U 09033A   26065.16572465  .00000120  00000+0  00000+0 0  9993
2 35491   1.4238  84.3957 0001780 255.5978  84.3240  1.00100143  5551
GOES 15                 
1 36411U 10008A   26065.16626162  .00000016  00000+0  00000+0 0  9998
2 36411   1.0131  85.1126 0002005  18.4418 183.6554  1.00269713 58609
GSAT0101 (GALILEO-PFM)  
1 37846U 11060A   26053.46432651 -.00000082  00000+0  00000+0 0  9992
2 37846  57.0318 344.8758 0003975 357.0591   2.9533  1.70475478 89166
GSAT0102 (GALILEO-FM2)  
1 37847U 11060B   26060.06318653 -.00000106  00000+0  00000+0 0  9999
2 37847  57.0301 344.6971 0005422 341.2092 154.1953  1.70475778 89286
LUCH 5A                 
1 37951U 11074B   26065.25812869 -.00000050  00000+0  00000+0 0  9992
2 37951   8.4918  75.3187 0003890 247.7042 101.0013  1.00275932 52017
METEOSAT-10 (MSG-3)     
1 38552U 12035B   26065.22502188 -.00000010  00000+0  00000+0 0  9991
2 38552   4.4280  61.4557 0002494 282.3505 261.3987  1.00267763 49826
SARSAT 13 (METOP-B)     
1 38771U 12049A   26065.27743605  .00000173  00000+0  98863-4 0  9993
2 38771  98.6649 118.7664 0001189 284.6654  75.4392 14.21443484698645
GPS BIIF-3              
1 38833U 12053A   26064.11552350  .00000009  00000+0  00000+0 0  9993
2 38833  53.5659 147.8643 0176939  64.7787 297.0919  2.00565848 97356
GSAT0103 (GALILEO-FM3)  
1 38857U 12055A   26064.64990116  .00000009  00000+0  00000+0 0  9995
2 38857  55.7393 104.3859 0005425 285.5287  74.4915  1.70473457 83254
